{
  "links" : {
    "next" : "https://api.nasa.gov/neo/rest/v1/feed?start_date=2010-01-16&end_date=2010-01-16&detailed=true&api_key=t0TVs3DtDT2H8Oy2Zy8m2eVrNsAVKAexjcZXUckd",
    "prev" : "https://api.nasa.gov/neo/rest/v1/feed?start_date=2010-01-14&end_date=2010-01-14&detailed=true&api_key=t0TVs3DtDT2H8Oy2Zy8m2eVrNsAVKAexjcZXUckd",
    "self" : "https://api.nasa.gov/neo/rest/v1/feed?start_date=2010-01-15&end_date=2010-01-15&detailed=true&api_key=t0TVs3DtDT2H8Oy2Zy8m2eVrNsAVKAexjcZXUckd"
  },
  "element_count" : 6,
  "near_earth_objects" : {
    "2010-01-15" : [ {
      "links" : {
        "self" : "https://api.nasa.gov/neo/rest/v1/neo/3444372?api_key=t0TVs3DtDT2H8Oy2Zy8m2eVrNsAVKAexjcZXUckd"
      },
      "neo_reference_id" : "3444372",
      "name" : "(2009 BK2)",
      "nasa_jpl_url" : "http://ssd.jpl.nasa.gov/sbdb.cgi?sstr=3444372",
      "absolute_magnitude_h" : 25.3,
      "estimated_diameter" : {
        "kilometers" : {
          "estimated_diameter_min" : 0.0231502122,
          "estimated_diameter_max" : 0.0517654482
        },
        "meters" : {
          "estimated_diameter_min" : 23.150212221,
          "estimated_diameter_max" : 51.7654482198
        },
        "miles" : {
          "estimated_diameter_min" : 0.0143848705,
          "estimated_diameter_max" : 0.0321655483
        },
        "feet" : {
          "estimated_diameter_min" : 75.9521422633,
          "estimated_diameter_max" : 169.8341531374
        }
      },
      "is_potentially_hazardous_asteroid" : false,
      "close_approach_data" : [ {
        "close_approach_date" : "2010-01-15",
        "epoch_date_close_approach" : 1263542400000,
        "relative_velocity" : {
          "kilometers_per_second" : "5.3614702411",
          "kilometers_per_hour" : "19301.292868086",
          "miles_per_hour" : "11993.0727823949"
        },
        "miss_distance" : {
          "astronomical" : "0.1841672471",
          "lunar" : "71.6410598755",
          "kilometers" : "27551028",
          "miles" : "17119416"
        },
        "orbiting_body" : "Earth"
      } ],
      "orbital_data" : {
        "orbit_id" : "9",
        "orbit_determination_date" : "2017-04-06 09:01:37",
        "orbit_uncertainty" : "6",
        "minimum_orbit_intersection" : ".0260372",
        "jupiter_tisserand_invariant" : "5.999",
        "epoch_osculation" : "2458000.5",
        "eccentricity" : ".2125930468909539",
        "semi_major_axis" : "1.012508661951755",
        "inclination" : "3.553442212088394",
        "ascending_node_longitude" : "126.0814471570123",
        "orbital_period" : "372.1315978975369",
        "perihelion_distance" : ".797256360503949",
        "perihelion_argument" : "121.5262754277315",
        "aphelion_distance" : "1.227760963399562",
        "perihelion_time" : "2457939.370406013472",
        "mean_anomaly" : "59.13675151339703",
        "mean_motion" : ".9673997103012003",
        "equinox" : "J2000"
      }
    }, {
      "links" : {
        "self" : "https://api.nasa.gov/neo/rest/v1/neo/3449126?api_key=t0TVs3DtDT2H8Oy2Zy8m2eVrNsAVKAexjcZXUckd"
      },
      "neo_reference_id" : "3449126",
      "name" : "(2009 EB1)",
      "nasa_jpl_url" : "http://ssd.jpl.nasa.gov/sbdb.cgi?sstr=3449126",
      "absolute_magnitude_h" : 20.7,
      "estimated_diameter" : {
        "kilometers" : {
          "estimated_diameter_min" : 0.1925550782,
          "estimated_diameter_max" : 0.4305662442
        },
        "meters" : {
          "estimated_diameter_min" : 192.5550781879,
          "estimated_diameter_max" : 430.566244241
        },
        "miles" : {
          "estimated_diameter_min" : 0.1196481415,
          "estimated_diameter_max" : 0.2675413778
        },
        "feet" : {
          "estimated_diameter_min" : 631.7424027221,
          "estimated_diameter_max" : 1412.6189567557
        }
      },
      "is_potentially_hazardous_asteroid" : false,
      "close_approach_data" : [ {
        "close_approach_date" : "2010-01-15",
        "epoch_date_close_approach" : 1263542400000,
        "relative_velocity" : {
          "kilometers_per_second" : "11.5344463893",
          "kilometers_per_hour" : "41524.0070014804",
          "miles_per_hour" : "25801.4031282254"
        },
        "miss_distance" : {
          "astronomical" : "0.4504681752",
          "lunar" : "175.2321166992",
          "kilometers" : "67389080",
          "miles" : "41873632"
        },
        "orbiting_body" : "Earth"
      } ],
      "orbital_data" : {
        "orbit_id" : "22",
        "orbit_determination_date" : "2017-01-05 08:17:55",
        "orbit_uncertainty" : "0",
        "minimum_orbit_intersection" : ".19921",
        "jupiter_tisserand_invariant" : "5.505",
        "epoch_osculation" : "2457800.5",
        "eccentricity" : ".4542990145694096",
        "semi_major_axis" : "1.10645686831139",
        "inclination" : "12.5071449323948",
        "ascending_node_longitude" : "151.3520242591488",
        "orbital_period" : "425.1088637963063",
        "perihelion_distance" : ".6037946033739703",
        "perihelion_argument" : "187.5287761591349",
        "aphelion_distance" : "1.609119133248809",
        "perihelion_time" : "2457642.479411602828",
        "mean_anomaly" : "133.8184560890267",
        "mean_motion" : ".8468419048832075",
        "equinox" : "J2000"
      }
    }, {
      "links" : {
        "self" : "https://api.nasa.gov/neo/rest/v1/neo/2481965?api_key=t0TVs3DtDT2H8Oy2Zy8m2eVrNsAVKAexjcZXUckd"
      },
      "neo_reference_id" : "2481965",
      "name" : "481965 (2009 EB1)",
      "nasa_jpl_url" : "http://ssd.jpl.nasa.gov/sbdb.cgi?sstr=2481965",
      "absolute_magnitude_h" : 20.7,
      "estimated_diameter" : {
        "kilometers" : {
          "estimated_diameter_min" : 0.1925550782,
          "estimated_diameter_max" : 0.4305662442
        },
        "meters" : {
          "estimated_diameter_min" : 192.5550781879,
          "estimated_diameter_max" : 430.566244241
        },
        "miles" : {
          "estimated_diameter_min" : 0.1196481415,
          "estimated_diameter_max" : 0.2675413778
        },
        "feet" : {
          "estimated_diameter_min" : 631.7424027221,
          "estimated_diameter_max" : 1412.6189567557
        }
      },
      "is_potentially_hazardous_asteroid" : false,
      "close_approach_data" : [ {
        "close_approach_date" : "2010-01-15",
        "epoch_date_close_approach" : 1263542400000,
        "relative_velocity" : {
          "kilometers_per_second" : "11.5344456383",
          "kilometers_per_hour" : "41524.0042979095",
          "miles_per_hour" : "25801.4014483316"
        },
        "miss_distance" : {
          "astronomical" : "0.4504681169",
          "lunar" : "175.2321014404",
          "kilometers" : "67389072",
          "miles" : "41873628"
        },
        "orbiting_body" : "Earth"
      } ],
      "orbital_data" : {
        "orbit_id" : "27",
        "orbit_determination_date" : "2017-04-06 09:18:46",
        "orbit_uncertainty" : "0",
        "minimum_orbit_intersection" : ".199193",
        "jupiter_tisserand_invariant" : "5.505",
        "epoch_osculation" : "2458000.5",
        "eccentricity" : ".4542151196479987",
        "semi_major_axis" : "1.106468414205424",
        "inclination" : "12.50599868027013",
        "ascending_node_longitude" : "151.3489757483543",
        "orbital_period" : "425.1155178397299",
        "perihelion_distance" : ".6038937310603758",
        "perihelion_argument" : "187.5342905867442",
        "aphelion_distance" : "1.609043097350472",
        "perihelion_time" : "2458067.603442279827",
        "mean_anomaly" : "303.1748825742813",
        "mean_motion" : ".8468286498441144",
        "equinox" : "J2000"
      }
    } ]
  }
}